start=new Date('2021-09-07T00:00:00.000Z').valueOf();
sats=[{"MEAN_ELEMENT_THEORY":"SGP4","INCLINATION":"53.0533","GP_ID":"184226319","ECCENTRICITY":"0.00018960","MEAN_MOTION_DOT":"0.00002278","OBJECT_NAME":"STARLINK-1710","PERIAPSIS":"545.897","CENTER_NAME":"EARTH","MEAN_MOTION":"15.06401064","REV_AT_EPOCH":"5666","RA_OF_ASC_NODE":"181.1113","SEMIMAJOR_AXIS":"6925.345","EPOCH":"2021-09-06T17:39:21.906144","DECAY_DATE":null,"LAUNCH_DATE":"2020-09-03","ELEMENT_SET_NO":"999","ARG_OF_PERICENTER":"62.7488","TLE_LINE2":"2 46330  53.0533 181.1113 0001896  62.7488 297.3694 15.06401064 56662","NORAD_CAT_ID":"46330","EPHEMERIS_TYPE":"0","TLE_LINE1":"1 46330U 20062F   21249.73567021  .00002278  00000-0  17181-3 0  9995","COUNTRY_CODE":"US","APOAPSIS":"548.523","MEAN_ANOMALY":"297.3694","BSTAR":"0.00017181000000","OBJECT_ID":"2020-062F","SITE":"AFETR","FILE":"3109923","MEAN_MOTION_DDOT":"0.0000000000000","RCS_SIZE":"LARGE","OBJECT_TYPE":"PAYLOAD","TIME_SYSTEM":"UTC","CLASSIFICATION_TYPE":"U","PERIOD":"95.592","REF_FRAME":"TEME"},{"GP_ID":"184225067","ECCENTRICITY":"0.00013640","INCLINATION":"53.0545","MEAN_ELEMENT_THEORY":"SGP4","OBJECT_NAME":"STARLINK-1719","PERIAPSIS":"546.271","CENTER_NAME":"EARTH","MEAN_MOTION_DOT":"-0.00000824","DECAY_DATE":null,"SEMIMAJOR_AXIS":"6925.350","EPOCH":"2021-09-06T13:43:09.861024","MEAN_MOTION":"15.06399378","REV_AT_EPOCH":"5635","RA_OF_ASC_NODE":"201.8482","LAUNCH_DATE":"2020-09-03","NORAD_CAT_ID":"46331","ELEMENT_SET_NO":"999","ARG_OF_PERICENTER":"48.4766","TLE_LINE2":"2 46331  53.0545 201.8482 0001364  48.4766 311.6339 15.06399378 56351","APOAPSIS":"548.160","COUNTRY_CODE":"US","EPHEMERIS_TYPE":"0","TLE_LINE1":"1 46331U 20062G   21249.57164191 -.00000824  00000-0 -36403-4 0  9995","FILE":"3109923","OBJECT_ID":"2020-062G","SITE":"AFETR","MEAN_ANOMALY":"311.6339","BSTAR":"-0.00003640300000","REF_FRAME":"TEME","CLASSIFICATION_TYPE":"U","PERIOD":"95.592","OBJECT_TYPE":"PAYLOAD","TIME_SYSTEM":"UTC","MEAN_MOTION_DDOT":"0.0000000000000","RCS_SIZE":"LARGE"},{"RCS_SIZE":"LARGE","MEAN_MOTION_DDOT":"0.0000000000000","TIME_SYSTEM":"UTC","OBJECT_TYPE":"PAYLOAD","CLASSIFICATION_TYPE":"U","PERIOD":"95.593","REF_FRAME":"TEME","MEAN_ANOMALY":"303.7050","BSTAR":"0.00001126100000","OBJECT_ID":"2020-062H","SITE":"AFETR","FILE":"3109923","EPHEMERIS_TYPE":"0","TLE_LINE1":"1 46332U 20062H   21249.58270560 -.00000114  00000-0  11261-4 0  9991","COUNTRY_CODE":"US","APOAPSIS":"548.255","ELEMENT_SET_NO":"999","TLE_LINE2":"2 46332  53.0526 201.7995 0001468  56.4079 303.7050 15.06392041 56352","ARG_OF_PERICENTER":"56.4079","NORAD_CAT_ID":"46332","LAUNCH_DATE":"2020-09-03","MEAN_MOTION":"15.06392041","REV_AT_EPOCH":"5635","RA_OF_ASC_NODE":"201.7995","SEMIMAJOR_AXIS":"6925.373","EPOCH":"2021-09-06T13:59:05.763840","DECAY_DATE":null,"MEAN_MOTION_DOT":"-0.00000114","OBJECT_NAME":"STARLINK-1721","PERIAPSIS":"546.221","CENTER_NAME":"EARTH","MEAN_ELEMENT_THEORY":"SGP4","INCLINATION":"53.0526","GP_ID":"184224818","ECCENTRICITY":"0.00014680"},{"ECCENTRICITY":"0.00014640","GP_ID":"184226069","MEAN_ELEMENT_THEORY":"SGP4","INCLINATION":"53.0541","PERIAPSIS":"546.200","CENTER_NAME":"EARTH","OBJECT_NAME":"STARLINK-1723","MEAN_MOTION_DOT":"0.00000997","DECAY_DATE":null,"REV_AT_EPOCH":"5639","RA_OF_ASC_NODE":"200.5442","MEAN_MOTION":"15.06400020","EPOCH":"2021-09-06T20:42:28.385856","SEMIMAJOR_AXIS":"6925.348","LAUNCH_DATE":"2020-09-03","NORAD_CAT_ID":"46333","ARG_OF_PERICENTER":"56.9143","TLE_LINE2":"2 46333  53.0541 200.5442 0001464  56.9143 303.1987 15.06400020 56391","ELEMENT_SET_NO":"999","COUNTRY_CODE":"US","APOAPSIS":"548.227","EPHEMERIS_TYPE":"0","TLE_LINE1":"1 46333U 20062J   21249.86282854  .00000997  00000-0  85840-4 0  9994","FILE":"3109923","BSTAR":"0.00008584000000","MEAN_ANOMALY":"303.1987","SITE":"AFETR","OBJECT_ID":"2020-062J","PERIOD":"95.592","CLASSIFICATION_TYPE":"U","REF_FRAME":"TEME","RCS_SIZE":"LARGE","MEAN_MOTION_DDOT":"0.0000000000000","TIME_SYSTEM":"UTC","OBJECT_TYPE":"PAYLOAD"},{"FILE":"3109780","OBJECT_ID":"2020-062K","SITE":"AFETR","MEAN_ANOMALY":"283.2759","BSTAR":"0.00002027500000","REF_FRAME":"TEME","PERIOD":"95.593","CLASSIFICATION_TYPE":"U","TIME_SYSTEM":"UTC","OBJECT_TYPE":"PAYLOAD","MEAN_MOTION_DDOT":"0.0000000000000","RCS_SIZE":"LARGE","NORAD_CAT_ID":"46334","ELEMENT_SET_NO":"999","TLE_LINE2":"2 46334  53.0539 180.6441 0001903  76.8442 283.2759 15.06394310 56857","ARG_OF_PERICENTER":"76.8442","APOAPSIS":"548.549","COUNTRY_CODE":"US","EPHEMERIS_TYPE":"0","TLE_LINE1":"1 46334U 20062K   21249.83793115  .00000020  00000-0  20275-4 0  9997","DECAY_DATE":null,"SEMIMAJOR_AXIS":"6925.366","EPOCH":"2021-09-06T20:06:37.251360","MEAN_MOTION":"15.06394310","REV_AT_EPOCH":"5685","RA_OF_ASC_NODE":"180.6441","LAUNCH_DATE":"2020-09-03","GP_ID":"184200645","ECCENTRICITY":"0.00019030","INCLINATION":"53.0539","MEAN_ELEMENT_THEORY":"SGP4","OBJECT_NAME":"STARLINK-1725","CENTER_NAME":"EARTH","PERIAPSIS":"545.913","MEAN_MOTION_DOT":"0.00000020"},{"OBJECT_ID":"2020-062L","SITE":"AFETR","MEAN_ANOMALY":"307.8580","BSTAR":"0.00009913600000","FILE":"3109923","TIME_SYSTEM":"UTC","OBJECT_TYPE":"PAYLOAD","RCS_SIZE":"LARGE","MEAN_MOTION_DDOT":"0.0000000000000","REF_FRAME":"TEME","PERIOD":"95.592","CLASSIFICATION_TYPE":"U","ELEMENT_SET_NO":"999","TLE_LINE2":"2 46335  53.0528 200.4067 0001576  52.2552 307.8580 15.06400280 56407","ARG_OF_PERICENTER":"52.2552","NORAD_CAT_ID":"46335","EPHEMERIS_TYPE":"0","TLE_LINE1":"1 46335U 20062L   21249.89232446  .00001195  00000-0  99136-4 0  9995","APOAPSIS":"548.304","COUNTRY_CODE":"US","SEMIMAJOR_AXIS":"6925.348","EPOCH":"2021-09-06T21:24:56.833344","MEAN_MOTION":"15.06400280","RA_OF_ASC_NODE":"200.4067","REV_AT_EPOCH":"5640","DECAY_DATE":null,"LAUNCH_DATE":"2020-09-03","INCLINATION":"53.0528","MEAN_ELEMENT_THEORY":"SGP4","GP_ID":"184224568","ECCENTRICITY":"0.00015760","MEAN_MOTION_DOT":"0.00001195","OBJECT_NAME":"STARLINK-1727","PERIAPSIS":"546.121","CENTER_NAME":"EARTH"},{"REF_FRAME":"TEME","PERIOD":"95.592","CLASSIFICATION_TYPE":"U","TIME_SYSTEM":"UTC","OBJECT_TYPE":"PAYLOAD","MEAN_MOTION_DDOT":"0.0000000000000","RCS_SIZE":"LARGE","FILE":"3109773","OBJECT_ID":"2020-062M","SITE":"AFETR","MEAN_ANOMALY":"301.0598","BSTAR":"-0.00003101500000","APOAPSIS":"548.352","COUNTRY_CODE":"US","EPHEMERIS_TYPE":"0","TLE_LINE1":"1 46336U 20062M   21249.81676336 -.00000744  00000-0 -31015-4 0  9991","NORAD_CAT_ID":"46336","ELEMENT_SET_NO":"999","TLE_LINE2":"2 46336  53.0543 180.7472 0001648  59.0553 301.0598 15.06400775 56854","ARG_OF_PERICENTER":"59.0553","LAUNCH_DATE":"2020-09-03","DECAY_DATE":null,"SEMIMAJOR_AXIS":"6925.346","EPOCH":"2021-09-06T19:36:08.354304","MEAN_MOTION":"15.06400775","RA_OF_ASC_NODE":"180.7472","REV_AT_EPOCH":"5685","OBJECT_NAME":"STARLINK-1738","CENTER_NAME":"EARTH","PERIAPSIS":"546.070","MEAN_MOTION_DOT":"-0.00000744","GP_ID":"184200512","ECCENTRICITY":"0.00016480","INCLINATION":"53.0543","MEAN_ELEMENT_THEORY":"SGP4"},{"SEMIMAJOR_AXIS":"6925.366","EPOCH":"2021-09-06T19:57:21.019392","MEAN_MOTION":"15.06394291","REV_AT_EPOCH":"5667","RA_OF_ASC_NODE":"180.6799","DECAY_DATE":null,"LAUNCH_DATE":"2020-09-03","INCLINATION":"53.0532","MEAN_ELEMENT_THEORY":"SGP4","GP_ID":"184225570","ECCENTRICITY":"0.00015780","MEAN_MOTION_DOT":"0.00000492","OBJECT_NAME":"STARLINK-1750","CENTER_NAME":"EARTH","PERIAPSIS":"546.138","OBJECT_ID":"2020-062N","SITE":"AFETR","MEAN_ANOMALY":"302.9238","BSTAR":"0.00005190600000","FILE":"3109923","TIME_SYSTEM":"UTC","OBJECT_TYPE":"PAYLOAD","RCS_SIZE":"LARGE","MEAN_MOTION_DDOT":"0.0000000000000","REF_FRAME":"TEME","CLASSIFICATION_TYPE":"U","PERIOD":"95.593","ELEMENT_SET_NO":"999","ARG_OF_PERICENTER":"57.1903","TLE_LINE2":"2 46337  53.0532 180.6799 0001578  57.1903 302.9238 15.06394291 56670","NORAD_CAT_ID":"46337","TLE_LINE1":"1 46337U 20062N   21249.83149328  .00000492  00000-0  51906-4 0  9999","EPHEMERIS_TYPE":"0","APOAPSIS":"548.324","COUNTRY_CODE":"US"},{"DECAY_DATE":null,"SEMIMAJOR_AXIS":"6925.334","EPOCH":"2021-09-06T19:33:28.377792","MEAN_MOTION":"15.06404703","REV_AT_EPOCH":"5638","RA_OF_ASC_NODE":"200.7454","LAUNCH_DATE":"2020-09-03","GP_ID":"184226320","ECCENTRICITY":"0.00015120","INCLINATION":"53.0533","MEAN_ELEMENT_THEORY":"SGP4","OBJECT_NAME":"STARLINK-1752","PERIAPSIS":"546.152","CENTER_NAME":"EARTH","MEAN_MOTION_DOT":"0.00000892","FILE":"3109923","OBJECT_ID":"2020-062P","SITE":"AFETR","MEAN_ANOMALY":"315.5266","BSTAR":"0.00007873600000","REF_FRAME":"TEME","CLASSIFICATION_TYPE":"U","PERIOD":"95.592","OBJECT_TYPE":"PAYLOAD","TIME_SYSTEM":"UTC","RCS_SIZE":"LARGE","MEAN_MOTION_DDOT":"0.0000000000000","NORAD_CAT_ID":"46338","ELEMENT_SET_NO":"999","TLE_LINE2":"2 46338  53.0533 200.7454 0001512  44.5844 315.5266 15.06404703 56385","ARG_OF_PERICENTER":"44.5844","APOAPSIS":"548.246","COUNTRY_CODE":"US","EPHEMERIS_TYPE":"0","TLE_LINE1":"1 46338U 20062P   21249.81491178  .00000892  00000-0  78736-4 0  9995"},{"TLE_LINE1":"1 46339U 20062Q   21249.86869543  .00230032  00000-0  44855-2 0  9990","EPHEMERIS_TYPE":"0","APOAPSIS":"433.572","COUNTRY_CODE":"US","ARG_OF_PERICENTER":"276.4144","TLE_LINE2":"2 46339  53.0545 174.7330 0008184 276.4144  83.5930 15.46150473 56941","ELEMENT_SET_NO":"999","NORAD_CAT_ID":"46339","OBJECT_TYPE":"PAYLOAD","TIME_SYSTEM":"UTC","RCS_SIZE":"LARGE","MEAN_MOTION_DDOT":"0.0000000000000","REF_FRAME":"TEME","PERIOD":"93.135","CLASSIFICATION_TYPE":"U","SITE":"AFETR","OBJECT_ID":"2020-062Q","BSTAR":"0.00448550000000","MEAN_ANOMALY":"83.5930","FILE":"3109774","MEAN_MOTION_DOT":"0.00230032","CENTER_NAME":"EARTH","PERIAPSIS":"422.432","OBJECT_NAME":"STARLINK-1757","INCLINATION":"53.0545","MEAN_ELEMENT_THEORY":"SGP4","ECCENTRICITY":"0.00081840","GP_ID":"184200524","LAUNCH_DATE":"2020-09-03","EPOCH":"2021-09-06T20:50:55.285152","SEMIMAJOR_AXIS":"6806.137","REV_AT_EPOCH":"5694","RA_OF_ASC_NODE":"174.7330","MEAN_MOTION":"15.46150473","DECAY_DATE":null}];
